#dP2024  7  6 12  0  0.00000000      96 __u+U IGS20 EXT  IAC
## 2321 561600.00000000   900.00000000 60497 0.5000000000000
+   54   G02G03G04G05G06G07G08G09G10G11G12G13G14G15G16G17G18
+        G19G20G21G22G23G24G25G26G27G28G29G30G31G32R01R02R03
+        R04R05R07R08R09R11R12R13R14R15R16R17R18R19R20R21R22
+        R24R25R26  0  0  0  0  0  0  0  0  0  0  0  0  0  0
+          0  0  0  0  0  0  0  0  0  0  0  0  0  0  0  0  0
++         8  9  9  7  8  8  9  8  8  7  7  9  9  8  9 10  7
++         7  6  7 10  8  9  8  7  9  8  6  9  8  9  9  8  8
++         9  8  9  6  7  7  9  8  9  9  8  7  7  7  8  8  9
++         9 10  8  0  0  0  0  0  0  0  0  0  0  0  0  0  0
++         0  0  0  0  0  0  0  0  0  0  0  0  0  0  0  0  0
%c M  cc GPS ccc cccc cccc cccc cccc ccccc ccccc ccccc ccccc
%c cc cc ccc ccc cccc cccc cccc cccc ccccc ccccc ccccc ccccc
%f  0.0000000  0.000000000  0.00000000000  0.000000000000000
%f  0.0000000  0.000000000  0.00000000000  0.000000000000000
%i    0    0    0    0      0      0      0      0         0
%i    0    0    0    0      0      0      0      0         0
/* IAC                                ULTRA-RAPID PREDICTION
/* S/V CLOCKS ARE ALIGNED TO GNSS TIME                      
/* G:C1WC2W R:C1PC2P E:C1XC5X C:C2IC6I J:C1CC2S             
/* PCV:IGS20_2317 OL/AL:FES2004  NONE     YN ORB:CoN CLK:CoN
*  2024 07 06 16 30  0.00000000
PG02  12318.348846  13310.386852 -19036.337385   -404.177041
PG03  12819.612326  23052.100328   3471.992465    446.395660
PG04   6114.196255  15486.872225  20679.180296    398.268418
PG05  -3439.997386 -23667.829306  11278.840936   -178.827227
PG06  22721.564145  -5765.777508  12651.386100    177.354938
PG07  25406.359095   6714.004888   5814.639443    -75.627807
PG08  -2418.752595  22059.107860 -14380.458890    262.690862
PG09  15308.368323   4001.082035  21254.854933    262.662308
PG10 -14368.301725   3466.116228 -21880.869892    -59.507610
PG11  10634.503897 -12872.268527  20666.508128   -699.862097
PG12  -9913.627226 -24632.820694   1041.329044   -520.082503
PG13  11975.744992 -21724.235349  -9365.546955    662.788275
PG14  16529.929998    552.567737 -20781.955756    442.512113
PG15   -701.355278 -22405.185178 -14607.839029    178.111632
PG16  -2142.054949  22347.888172  13500.361728   -244.174335
PG17  20229.458929  -9682.507163 -13938.711871    682.624063
PG18 -25601.131640  -6044.650478   4421.366274   -633.580609
PG19  20174.169587 -15574.862240  -6845.815124    506.635748
PG20   3341.748418 -18623.356612  18761.071010    373.050471
PG21   7047.121901  14575.061762 -20804.181575    110.692736
PG22  12776.685259  -8531.776350 -21276.991643    -36.338130
PG23 -17640.881358  -9167.554174 -17689.111211    267.477800
PG24 -10029.866014 -14899.611831 -20108.656386   -481.875028
PG25 -16444.967529 -18442.713021   9744.363028    498.230071
PG26 -10518.762896  12693.697156  20611.718960    124.712234
PG27 -11732.039745  23036.631221  -5304.900863    -30.434213
PG28 -23900.772485   5525.060061  10173.482703   -319.982041
PG29 -12655.948359  -8144.271448  21839.342088   -590.874519
PG30  26147.476214  -1195.612489  -5128.575946   -362.343553
PG31 -15934.338307  11012.463682  18124.723637   -226.958536
PG32 -19524.118507  12107.444172 -12941.672774   -613.466582
PR01 -11324.189033  16818.848174 -15489.260539     90.557389
PR02  -6288.563689  24679.208368    635.951308    -23.594930
PR03   3140.816446  19097.697781  16629.427103    103.347783
PR04  10185.134448   3322.708935  23177.041719    244.205290
PR05  12138.886955 -14247.367732  17350.720556    134.158344
PR07  -3400.555828 -18693.999028 -17005.203051     86.091432
PR08 -10354.099031  -3032.903682 -23055.438799     -5.660889
PR09  -2340.569134 -15593.460275 -19998.457476    196.194736
PR11 -19936.057740 -13024.352884   9129.948414     19.044144
PR12 -12650.101638   2497.903409  22040.981581     42.133380
PR13    -13.220743  14068.687286  21270.511192    -49.053383
PR14  15413.545377  19187.931899   6767.484668     26.661586
PR15  19815.350633  12092.143245 -10560.656492     78.129407
PR16  12702.840153  -2221.903403 -21999.271100     27.109298
PR17   9154.079944   8117.260136 -22371.923191    102.232534
PR18  22171.045277    128.568508 -12642.042485    150.606293
PR19  24609.435270  -6441.736630   1805.504990   -282.920380
PR20  11160.009570 -11591.037831  19807.897789   -115.707831
PR21  -8746.431929  -8244.471635  22497.984820   -115.302828
PR22 -22735.104822   -306.236937  11578.044487     92.669401
PR24  -9978.820123  12464.868647 -19888.582318    -62.718245
PR25  -9288.921103  -8623.022710  22142.382652    -95.025874
PR26  -9994.437853  -4396.798883 -23032.391664     -4.640426
*  2024 07 06 16 45  0.00000000
PG02   9990.175636  13446.711329 -20211.270629   -404.170505
PG03  12769.647907  23353.146117    587.976758    446.410933
PG04   4687.549865  17296.267142  19575.617934    398.275500
PG05  -2567.697956 -22489.094963  13644.540548   -178.828340
PG06  23995.551862  -5521.855083  10159.119163    177.334872
PG07  24646.154008   6892.406422   8466.462362    -75.620366
PG08  -3425.035017  23219.795715 -12118.826572    262.706012
PG09  14012.815258   6106.991842  21638.019095    262.675782
PG10 -15455.207939   1201.552856 -21409.402612    -59.515991
PG11  12905.547963 -12517.799512  19554.663476   -699.868562
PG12  -9678.517319 -24713.790183  -1813.934832   -520.085282
PG13  12739.171368 -22243.409917  -6674.240430    662.790561
PG14  17430.297138   2708.451684 -19878.390690    442.520194
PG15    154.537664 -23643.950802 -12415.332545    178.115487
PG16  -2977.121575  20810.754511  15623.429769   -244.164739
PG17  19291.539181  -8168.102741 -16007.222978    682.617720
PG18 -24929.059762  -6181.975978   7189.606890   -633.584445
PG19  19769.517530 -14707.399114  -9528.038443    506.640628
PG20   4740.320350 -16915.029621  20025.664504    373.050089
PG21   4559.218350  14651.440421 -21333.053821    110.690452
PG22  13695.961672  -6168.927965 -21489.977433    -36.342333
PG23 -18424.863512 -10913.667527 -15819.797856    267.485893
PG24  -7768.018948 -15048.482256 -20961.619001   -481.876709
PG25 -16680.219938 -19449.750769   7151.729834    498.230451
PG26 -11828.869271  10642.247169  21087.622856    124.706189
PG27 -12193.934705  23233.083188  -2468.263470    -30.435114
PG28 -24908.530213   5257.634749   7566.271476   -319.996600
PG29 -11104.895253 -10114.633030  21848.434634   -590.872832
PG30  26570.981169   -862.458340  -2383.940570   -362.337763
PG31 -17918.021389  10686.735740  16442.697797   -226.958336
PG32 -18796.762049  10616.745016 -15126.287021   -613.465032
PR01 -10836.928801  14826.956595 -17711.724262     90.558391
PR02  -6096.170897  24594.175129  -2589.338009    -23.595122
PR03   2847.475439  20977.532620  14233.862271    103.348284
PR04   9559.612149   6089.560699  22878.504979    244.206628
PR05  11512.223101 -12071.801163  19315.864971    134.158728
PR07  -3091.666414 -20633.998147 -14669.686639     86.092099
PR08  -9748.833028  -5811.997171 -22788.017741     -5.661421
PR09   -420.225188 -13905.710697 -21336.694209    196.196676
PR11 -20725.778868 -13548.493068   6099.391338     19.042962
PR12 -14641.341310    760.931006  20906.636794     42.133701
PR13  -2000.393996  12258.712227  22272.585613    -49.053768
PR14  14727.782219  18431.096168   9747.492994     26.661566
PR15  20727.824464  12760.619745  -7621.529433     78.128992
PR16  14710.387357   -497.810815 -20827.897955     27.109529
PR17   6465.136143   8911.811755 -23003.032250    102.235503
PR18  20472.557323    458.062128 -15228.420253    150.607940
PR19  24576.092719  -6660.041524  -1440.736305   -282.921636
PR20  13381.194160 -12305.500836  17912.719397   -115.708405
PR21  -6037.789964  -9017.461838  23080.928271   -115.305760
PR22 -21167.990260   -599.904537  14237.919613     92.663982
PR24 -12192.651476  13241.268549 -18072.910295    -62.719647
PR25  -6601.128994  -9307.420281  22817.302640    -95.027774
PR26  -9419.665123  -7157.966817 -22575.948698     -4.639603
EOF
